{
  "updatedAt": "2026-03-20T16:26:01.420Z",
  "entries": {
    "kompsat-5": {
      "fetchedAt": "2026-03-20T16:26:01.420Z",
      "fleetEntry": {
        "id": "kompsat-5",
        "name": "KOMPSAT 5",
        "englishName": "KOMPSAT 5",
        "domesticName": "아리랑위성 5호",
        "color": "#9bdeac",
        "norad": "39227",
        "orbitClass": "leo",
        "orbitLabel": "LEO SSO",
        "missionType": "earth-observation",
        "missionLabel": "상업 지구관측",
        "operationalStatus": "운용 중",
        "objectId": "2013-042A",
        "launchDate": "2013-08-22",
        "sourceDate": "2026-03-20",
        "sourceLabel": "Space-Track cached GP",
        "omm": {
          "CCSDS_OMM_VERS": "3.0",
          "COMMENT": "GENERATED VIA SPACE-TRACK.ORG API",
          "CREATION_DATE": "2026-03-20T14:26:40",
          "ORIGINATOR": "18 SPCS",
          "OBJECT_NAME": "KOMPSAT 5",
          "OBJECT_ID": "2013-042A",
          "CENTER_NAME": "EARTH",
          "REF_FRAME": "TEME",
          "TIME_SYSTEM": "UTC",
          "MEAN_ELEMENT_THEORY": "SGP4",
          "EPOCH": "2026-03-20T12:15:09.882720",
          "MEAN_MOTION": 15.04510783,
          "ECCENTRICITY": 0.0005186,
          "INCLINATION": 97.6208,
          "RA_OF_ASC_NODE": 267.4447,
          "ARG_OF_PERICENTER": 85.9666,
          "MEAN_ANOMALY": 274.2153,
          "EPHEMERIS_TYPE": 0,
          "CLASSIFICATION_TYPE": "U",
          "NORAD_CAT_ID": 39227,
          "ELEMENT_SET_NO": 999,
          "REV_AT_EPOCH": 69052,
          "BSTAR": 0.000066463,
          "MEAN_MOTION_DOT": 0.0000087,
          "MEAN_MOTION_DDOT": 0,
          "SEMIMAJOR_AXIS": "6931.145",
          "PERIOD": "95.712",
          "APOAPSIS": "556.604",
          "PERIAPSIS": "549.415",
          "OBJECT_TYPE": "PAYLOAD",
          "RCS_SIZE": "LARGE",
          "COUNTRY_CODE": "SKOR",
          "LAUNCH_DATE": "2013-08-22",
          "SITE": "OREN",
          "DECAY_DATE": null,
          "FILE": "5093205",
          "GP_ID": "316566098",
          "TLE_LINE0": "0 KOMPSAT 5",
          "TLE_LINE1": "1 39227U 13042A   26079.51053105  .00000870  00000-0  66463-4 0  9991",
          "TLE_LINE2": "2 39227  97.6208 267.4447 0005186  85.9666 274.2153 15.04510783690521"
        }
      }
    },
    "koreasat-5a": {
      "fetchedAt": "2026-03-20T16:26:01.420Z",
      "fleetEntry": {
        "id": "koreasat-5a",
        "name": "KOREASAT 5A",
        "englishName": "KOREASAT 5A",
        "domesticName": "무궁화 5A호",
        "color": "#8bd0ff",
        "norad": "42984",
        "orbitClass": "geo",
        "orbitLabel": "GEO",
        "missionType": "communications",
        "missionLabel": "상업 통신",
        "operationalStatus": "운용 중",
        "orbitalSlot": "113°E",
        "objectId": "2017-067A",
        "launchDate": "2017-10-30",
        "sourceDate": "2026-03-20",
        "sourceLabel": "Space-Track cached GP",
        "omm": {
          "CCSDS_OMM_VERS": "3.0",
          "COMMENT": "GENERATED VIA SPACE-TRACK.ORG API",
          "CREATION_DATE": "2026-03-20T14:36:41",
          "ORIGINATOR": "18 SPCS",
          "OBJECT_NAME": "KOREASAT 5A",
          "OBJECT_ID": "2017-067A",
          "CENTER_NAME": "EARTH",
          "REF_FRAME": "TEME",
          "TIME_SYSTEM": "UTC",
          "MEAN_ELEMENT_THEORY": "SGP4",
          "EPOCH": "2026-03-20T13:25:21.266688",
          "MEAN_MOTION": 1.00266997,
          "ECCENTRICITY": 0.0001878,
          "INCLINATION": 0.0152,
          "RA_OF_ASC_NODE": 164.7906,
          "ARG_OF_PERICENTER": 218.5874,
          "MEAN_ANOMALY": 109.1963,
          "EPHEMERIS_TYPE": 0,
          "CLASSIFICATION_TYPE": "U",
          "NORAD_CAT_ID": 42984,
          "ELEMENT_SET_NO": 999,
          "REV_AT_EPOCH": 3064,
          "BSTAR": 0,
          "MEAN_MOTION_DOT": 0,
          "MEAN_MOTION_DDOT": 0,
          "SEMIMAJOR_AXIS": "42166.074",
          "PERIOD": "1436.165",
          "APOAPSIS": "35795.858",
          "PERIAPSIS": "35780.020",
          "OBJECT_TYPE": "PAYLOAD",
          "RCS_SIZE": "LARGE",
          "COUNTRY_CODE": "SKOR",
          "LAUNCH_DATE": "2017-10-30",
          "SITE": "AFETR",
          "DECAY_DATE": null,
          "FILE": "5093316",
          "GP_ID": "316568313",
          "TLE_LINE0": "0 KOREASAT 5A",
          "TLE_LINE1": "1 42984U 17067A   26079.55927392  .00000000  00000-0  00000+0 0  9993",
          "TLE_LINE2": "2 42984   0.0152 164.7906 0001878 218.5874 109.1963  1.00266997 30641"
        }
      }
    },
    "koreasat-6a": {
      "fetchedAt": "2026-03-20T16:26:01.420Z",
      "fleetEntry": {
        "id": "koreasat-6a",
        "name": "KOREASAT 6A",
        "englishName": "KOREASAT 6A",
        "domesticName": "무궁화 6A호",
        "color": "#65d4a8",
        "norad": "61910",
        "orbitClass": "geo",
        "orbitLabel": "GEO",
        "missionType": "communications",
        "missionLabel": "상업 통신",
        "operationalStatus": "운용 중",
        "orbitalSlot": "116°E",
        "objectId": "2024-206A",
        "launchDate": "2024-11-11",
        "sourceDate": "2026-03-20",
        "sourceLabel": "Space-Track cached GP",
        "omm": {
          "CCSDS_OMM_VERS": "3.0",
          "COMMENT": "GENERATED VIA SPACE-TRACK.ORG API",
          "CREATION_DATE": "2026-03-20T14:46:35",
          "ORIGINATOR": "18 SPCS",
          "OBJECT_NAME": "KOREASAT 6A",
          "OBJECT_ID": "2024-206A",
          "CENTER_NAME": "EARTH",
          "REF_FRAME": "TEME",
          "TIME_SYSTEM": "UTC",
          "MEAN_ELEMENT_THEORY": "SGP4",
          "EPOCH": "2026-03-20T13:26:58.201440",
          "MEAN_MOTION": 1.00268542,
          "ECCENTRICITY": 0.000059,
          "INCLINATION": 0.0217,
          "RA_OF_ASC_NODE": 222.6051,
          "ARG_OF_PERICENTER": 129.6242,
          "MEAN_ANOMALY": 143.5865,
          "EPHEMERIS_TYPE": 0,
          "CLASSIFICATION_TYPE": "U",
          "NORAD_CAT_ID": 61910,
          "ELEMENT_SET_NO": 999,
          "REV_AT_EPOCH": 495,
          "BSTAR": 0,
          "MEAN_MOTION_DOT": -0.00000359,
          "MEAN_MOTION_DDOT": 0,
          "SEMIMAJOR_AXIS": "42165.641",
          "PERIOD": "1436.143",
          "APOAPSIS": "35789.994",
          "PERIAPSIS": "35785.018",
          "OBJECT_TYPE": "PAYLOAD",
          "RCS_SIZE": null,
          "COUNTRY_CODE": "SKOR",
          "LAUNCH_DATE": "2024-11-11",
          "SITE": "AFETR",
          "DECAY_DATE": null,
          "FILE": "5093916",
          "GP_ID": "316580134",
          "TLE_LINE0": "0 KOREASAT 6A",
          "TLE_LINE1": "1 61910U 24206A   26079.56039585 -.00000359  00000-0  00000+0 0  9993",
          "TLE_LINE2": "2 61910   0.0217 222.6051 0000590 129.6242 143.5865  1.00268542  4955"
        }
      }
    },
    "oscar-23-kitsat-1-22077": {
      "fetchedAt": "2026-03-20T16:26:01.420Z",
      "fleetEntry": {
        "id": "oscar-23-kitsat-1-22077",
        "name": "OSCAR 23 (KITSAT 1)",
        "englishName": "OSCAR 23 (KITSAT 1)",
        "domesticName": "OSCAR 23 (KITSAT 1)",
        "color": "#ffd166",
        "norad": "22077",
        "orbitClass": "leo",
        "orbitLabel": "LEO",
        "missionType": "technology",
        "missionLabel": "기술실증/학술",
        "operationalStatus": "비현역",
        "objectId": "1992-052B",
        "launchDate": "1992-08-10",
        "sourceDate": "2026-03-20",
        "sourceLabel": "Space-Track cached GP",
        "omm": {
          "CCSDS_OMM_VERS": "3.0",
          "COMMENT": "GENERATED VIA SPACE-TRACK.ORG API",
          "CREATION_DATE": "2026-03-20T14:46:35",
          "ORIGINATOR": "18 SPCS",
          "OBJECT_NAME": "OSCAR 23 (KITSAT 1)",
          "OBJECT_ID": "1992-052B",
          "CENTER_NAME": "EARTH",
          "REF_FRAME": "TEME",
          "TIME_SYSTEM": "UTC",
          "MEAN_ELEMENT_THEORY": "SGP4",
          "EPOCH": "2026-03-20T09:01:49.728864",
          "MEAN_MOTION": 12.86610425,
          "ECCENTRICITY": 0.0013313,
          "INCLINATION": 66.0827,
          "RA_OF_ASC_NODE": 107.1681,
          "ARG_OF_PERICENTER": 304.0804,
          "MEAN_ANOMALY": 67.4478,
          "EPHEMERIS_TYPE": 0,
          "CLASSIFICATION_TYPE": "U",
          "NORAD_CAT_ID": 22077,
          "ELEMENT_SET_NO": 999,
          "REV_AT_EPOCH": 57826,
          "BSTAR": 0.00012288,
          "MEAN_MOTION_DOT": -3.1e-7,
          "MEAN_MOTION_DDOT": 0,
          "SEMIMAJOR_AXIS": "7693.143",
          "PERIOD": "111.922",
          "APOAPSIS": "1325.250",
          "PERIAPSIS": "1304.766",
          "OBJECT_TYPE": "PAYLOAD",
          "RCS_SIZE": "MEDIUM",
          "COUNTRY_CODE": "SKOR",
          "LAUNCH_DATE": "1992-08-10",
          "SITE": "FRGUI",
          "DECAY_DATE": null,
          "FILE": "5093659",
          "GP_ID": "316577389",
          "TLE_LINE0": "0 OSCAR 23 (KITSAT 1)",
          "TLE_LINE1": "1 22077U 92052B   26079.37627001 -.00000031  00000-0  12288-3 0  9995",
          "TLE_LINE2": "2 22077  66.0827 107.1681 0013313 304.0804  67.4478 12.86610425578262"
        }
      }
    }
  }
}